STARLINK-37078          
1 68174U 26050H   26084.61498427  .00291791  00000+0  14248-2 0  9999
2 68174  53.1593 201.9683 0001176  67.4292 292.6855 15.80989545  2999
STARLINK-36886          
1 68175U 26050J   26084.55101786  .00302108  00000+0  14743-2 0  9997
2 68175  53.1591 202.2797 0000892  77.5602 282.5521 15.80974914  2980
STARLINK-36905          
1 68176U 26050K   26084.55027274  .00197509  00000+0  97910-3 0  9992
2 68176  53.1595 202.2754 0001298  45.4782 314.6347 15.80926110  2980
STARLINK-36668          
1 68177U 26050L   26084.61273427  .00265961  00000+0  13041-2 0  9993
2 68177  53.1589 201.9521 0000861  59.8030 300.3078 15.80970715  2996
STARLINK-36677          
1 68178U 26050M   26084.61198463  .00266374  00000+0  13050-2 0  9999
2 68178  53.1592 201.9464 0000895  90.6027 269.5099 15.80987995  2990
STARLINK-37052          
1 68179U 26050N   26084.61123361  .00344258  00000+0  16684-2 0  9999
2 68179  53.1595 201.9430 0000836  50.0838 310.0258 15.81011671  2991
STARLINK-37035          
1 68180U 26050P   26084.61048428  .00260840  00000+0  12791-2 0  9990
2 68180  53.1597 201.9379 0001088 107.9124 252.2018 15.80982444  2992
STARLINK-37032          
1 68181U 26050Q   26084.60973455  .00293274  00000+0  14323-2 0  9997
2 68181  53.1594 201.9324 0001419  97.0020 263.1164 15.80982642  2995
STARLINK-37082          
1 68182U 26050R   26084.60898341  .00298127  00000+0  14550-2 0  9992
2 68182  53.1596 201.9272 0000982  93.9302 266.1833 15.80984111  2991
STARLINK-37102          
1 68183U 26050S   26084.60823366  .00288263  00000+0  14083-2 0  9999
2 68183  53.1595 201.9221 0001295 102.1610 257.9558 15.80988393  2996
STARLINK-36964          
1 68184U 26050T   26084.54426681  .00264204  00000+0  12960-2 0  9993
2 68184  53.1593 202.2339 0001132  75.4123 284.7025 15.80967060  2984
STARLINK-37061          
1 68185U 26050U   26084.60673297  .00302810  00000+0  14755-2 0  9998
2 68185  53.1596 201.9130 0001033  73.6611 286.4525 15.81005606  2990
