CCSDS_OMM_VERS = 2.0
CREATION_DATE  = 
ORIGINATOR     = 

OBJECT_NAME    = STARLINK-37078
OBJECT_ID      = 2026-050H
CENTER_NAME    = EARTH
REF_FRAME      = TEME
TIME_SYSTEM    = UTC
MEAN_ELEMENT_THEORY = SGP/SGP4

EPOCH          = 2026-03-25T14:45:34.640928
MEAN_MOTION    = 15.80989545
ECCENTRICITY   = .00011768
INCLINATION    = 53.1593
RA_OF_ASC_NODE = 201.9683
ARG_OF_PERICENTER = 67.4292
MEAN_ANOMALY   = 292.6855

EPHEMERIS_TYPE = 0
CLASSIFICATION_TYPE = U
NORAD_CAT_ID   = 68174
ELEMENT_SET_NO = 999
REV_AT_EPOCH   = 299
BSTAR          = .14248369E-2
MEAN_MOTION_DOT = .291791E-2
MEAN_MOTION_DDOT = 0

CCSDS_OMM_VERS = 2.0
CREATION_DATE  = 
ORIGINATOR     = 

OBJECT_NAME    = STARLINK-36886
OBJECT_ID      = 2026-050J
CENTER_NAME    = EARTH
REF_FRAME      = TEME
TIME_SYSTEM    = UTC
MEAN_ELEMENT_THEORY = SGP/SGP4

EPOCH          = 2026-03-25T13:13:27.943104
MEAN_MOTION    = 15.80974914
ECCENTRICITY   = .00008928
INCLINATION    = 53.1591
RA_OF_ASC_NODE = 202.2797
ARG_OF_PERICENTER = 77.5602
MEAN_ANOMALY   = 282.5521

EPHEMERIS_TYPE = 0
CLASSIFICATION_TYPE = U
NORAD_CAT_ID   = 68175
ELEMENT_SET_NO = 999
REV_AT_EPOCH   = 298
BSTAR          = .14742871E-2
MEAN_MOTION_DOT = .302108E-2
MEAN_MOTION_DDOT = 0

CCSDS_OMM_VERS = 2.0
CREATION_DATE  = 
ORIGINATOR     = 

OBJECT_NAME    = STARLINK-36905
OBJECT_ID      = 2026-050K
CENTER_NAME    = EARTH
REF_FRAME      = TEME
TIME_SYSTEM    = UTC
MEAN_ELEMENT_THEORY = SGP/SGP4

EPOCH          = 2026-03-25T13:12:23.564736
MEAN_MOTION    = 15.80926110
ECCENTRICITY   = .00012981
INCLINATION    = 53.1595
RA_OF_ASC_NODE = 202.2754
ARG_OF_PERICENTER = 45.4782
MEAN_ANOMALY   = 314.6347

EPHEMERIS_TYPE = 0
CLASSIFICATION_TYPE = U
NORAD_CAT_ID   = 68176
ELEMENT_SET_NO = 999
REV_AT_EPOCH   = 298
BSTAR          = .97909776E-3
MEAN_MOTION_DOT = .197509E-2
MEAN_MOTION_DDOT = 0

CCSDS_OMM_VERS = 2.0
CREATION_DATE  = 
ORIGINATOR     = 

OBJECT_NAME    = STARLINK-36668
OBJECT_ID      = 2026-050L
CENTER_NAME    = EARTH
REF_FRAME      = TEME
TIME_SYSTEM    = UTC
MEAN_ELEMENT_THEORY = SGP/SGP4

EPOCH          = 2026-03-25T14:42:20.240928
MEAN_MOTION    = 15.80970715
ECCENTRICITY   = .00008614
INCLINATION    = 53.1589
RA_OF_ASC_NODE = 201.9521
ARG_OF_PERICENTER = 59.8030
MEAN_ANOMALY   = 300.3078

EPHEMERIS_TYPE = 0
CLASSIFICATION_TYPE = U
NORAD_CAT_ID   = 68177
ELEMENT_SET_NO = 999
REV_AT_EPOCH   = 299
BSTAR          = .13040547E-2
MEAN_MOTION_DOT = .265961E-2
MEAN_MOTION_DDOT = 0

CCSDS_OMM_VERS = 2.0
CREATION_DATE  = 
ORIGINATOR     = 

OBJECT_NAME    = STARLINK-36677
OBJECT_ID      = 2026-050M
CENTER_NAME    = EARTH
REF_FRAME      = TEME
TIME_SYSTEM    = UTC
MEAN_ELEMENT_THEORY = SGP/SGP4

EPOCH          = 2026-03-25T14:41:15.472032
MEAN_MOTION    = 15.80987995
ECCENTRICITY   = .00008956
INCLINATION    = 53.1592
RA_OF_ASC_NODE = 201.9464
ARG_OF_PERICENTER = 90.6027
MEAN_ANOMALY   = 269.5099

EPHEMERIS_TYPE = 0
CLASSIFICATION_TYPE = U
NORAD_CAT_ID   = 68178
ELEMENT_SET_NO = 999
REV_AT_EPOCH   = 299
BSTAR          = .13049736E-2
MEAN_MOTION_DOT = .266374E-2
MEAN_MOTION_DDOT = 0

CCSDS_OMM_VERS = 2.0
CREATION_DATE  = 
ORIGINATOR     = 

OBJECT_NAME    = STARLINK-37052
OBJECT_ID      = 2026-050N
CENTER_NAME    = EARTH
REF_FRAME      = TEME
TIME_SYSTEM    = UTC
MEAN_ELEMENT_THEORY = SGP/SGP4

EPOCH          = 2026-03-25T14:40:10.583904
MEAN_MOTION    = 15.81011671
ECCENTRICITY   = .00008364
INCLINATION    = 53.1595
RA_OF_ASC_NODE = 201.9430
ARG_OF_PERICENTER = 50.0838
MEAN_ANOMALY   = 310.0258

EPHEMERIS_TYPE = 0
CLASSIFICATION_TYPE = U
NORAD_CAT_ID   = 68179
ELEMENT_SET_NO = 999
REV_AT_EPOCH   = 299
BSTAR          = .16683898E-2
MEAN_MOTION_DOT = .344258E-2
MEAN_MOTION_DDOT = 0

CCSDS_OMM_VERS = 2.0
CREATION_DATE  = 
ORIGINATOR     = 

OBJECT_NAME    = STARLINK-37035
OBJECT_ID      = 2026-050P
CENTER_NAME    = EARTH
REF_FRAME      = TEME
TIME_SYSTEM    = UTC
MEAN_ELEMENT_THEORY = SGP/SGP4

EPOCH          = 2026-03-25T14:39:05.841792
MEAN_MOTION    = 15.80982444
ECCENTRICITY   = .00010883
INCLINATION    = 53.1597
RA_OF_ASC_NODE = 201.9379
ARG_OF_PERICENTER = 107.9124
MEAN_ANOMALY   = 252.2018

EPHEMERIS_TYPE = 0
CLASSIFICATION_TYPE = U
NORAD_CAT_ID   = 68180
ELEMENT_SET_NO = 999
REV_AT_EPOCH   = 299
BSTAR          = .12790999E-2
MEAN_MOTION_DOT = .26084E-2
MEAN_MOTION_DDOT = 0

CCSDS_OMM_VERS = 2.0
CREATION_DATE  = 
ORIGINATOR     = 

OBJECT_NAME    = STARLINK-37032
OBJECT_ID      = 2026-050Q
CENTER_NAME    = EARTH
REF_FRAME      = TEME
TIME_SYSTEM    = UTC
MEAN_ELEMENT_THEORY = SGP/SGP4

EPOCH          = 2026-03-25T14:38:01.065120
MEAN_MOTION    = 15.80982642
ECCENTRICITY   = .00014197
INCLINATION    = 53.1594
RA_OF_ASC_NODE = 201.9324
ARG_OF_PERICENTER = 97.0020
MEAN_ANOMALY   = 263.1164

EPHEMERIS_TYPE = 0
CLASSIFICATION_TYPE = U
NORAD_CAT_ID   = 68181
ELEMENT_SET_NO = 999
REV_AT_EPOCH   = 299
BSTAR          = .14322751E-2
MEAN_MOTION_DOT = .293274E-2
MEAN_MOTION_DDOT = 0

CCSDS_OMM_VERS = 2.0
CREATION_DATE  = 
ORIGINATOR     = 

OBJECT_NAME    = STARLINK-37082
OBJECT_ID      = 2026-050R
CENTER_NAME    = EARTH
REF_FRAME      = TEME
TIME_SYSTEM    = UTC
MEAN_ELEMENT_THEORY = SGP/SGP4

EPOCH          = 2026-03-25T14:36:56.166624
MEAN_MOTION    = 15.80984111
ECCENTRICITY   = .00009821
INCLINATION    = 53.1596
RA_OF_ASC_NODE = 201.9272
ARG_OF_PERICENTER = 93.9302
MEAN_ANOMALY   = 266.1833

EPHEMERIS_TYPE = 0
CLASSIFICATION_TYPE = U
NORAD_CAT_ID   = 68182
ELEMENT_SET_NO = 999
REV_AT_EPOCH   = 299
BSTAR          = .14549727E-2
MEAN_MOTION_DOT = .298127E-2
MEAN_MOTION_DDOT = 0

CCSDS_OMM_VERS = 2.0
CREATION_DATE  = 
ORIGINATOR     = 

OBJECT_NAME    = STARLINK-37102
OBJECT_ID      = 2026-050S
CENTER_NAME    = EARTH
REF_FRAME      = TEME
TIME_SYSTEM    = UTC
MEAN_ELEMENT_THEORY = SGP/SGP4

EPOCH          = 2026-03-25T14:35:51.388224
MEAN_MOTION    = 15.80988393
ECCENTRICITY   = .00012958
INCLINATION    = 53.1595
RA_OF_ASC_NODE = 201.9221
ARG_OF_PERICENTER = 102.1610
MEAN_ANOMALY   = 257.9558

EPHEMERIS_TYPE = 0
CLASSIFICATION_TYPE = U
NORAD_CAT_ID   = 68183
ELEMENT_SET_NO = 999
REV_AT_EPOCH   = 299
BSTAR          = .14083076E-2
MEAN_MOTION_DOT = .288263E-2
MEAN_MOTION_DDOT = 0

CCSDS_OMM_VERS = 2.0
CREATION_DATE  = 
ORIGINATOR     = 

OBJECT_NAME    = STARLINK-36964
OBJECT_ID      = 2026-050T
CENTER_NAME    = EARTH
REF_FRAME      = TEME
TIME_SYSTEM    = UTC
MEAN_ELEMENT_THEORY = SGP/SGP4

EPOCH          = 2026-03-25T13:03:44.652384
MEAN_MOTION    = 15.80967060
ECCENTRICITY   = .00011322
INCLINATION    = 53.1593
RA_OF_ASC_NODE = 202.2339
ARG_OF_PERICENTER = 75.4123
MEAN_ANOMALY   = 284.7025

EPHEMERIS_TYPE = 0
CLASSIFICATION_TYPE = U
NORAD_CAT_ID   = 68184
ELEMENT_SET_NO = 999
REV_AT_EPOCH   = 298
BSTAR          = .12959601E-2
MEAN_MOTION_DOT = .264204E-2
MEAN_MOTION_DDOT = 0

CCSDS_OMM_VERS = 2.0
CREATION_DATE  = 
ORIGINATOR     = 

OBJECT_NAME    = STARLINK-37061
OBJECT_ID      = 2026-050U
CENTER_NAME    = EARTH
REF_FRAME      = TEME
TIME_SYSTEM    = UTC
MEAN_ELEMENT_THEORY = SGP/SGP4

EPOCH          = 2026-03-25T14:33:41.728608
MEAN_MOTION    = 15.81005606
ECCENTRICITY   = .00010337
INCLINATION    = 53.1596
RA_OF_ASC_NODE = 201.9130
ARG_OF_PERICENTER = 73.6611
MEAN_ANOMALY   = 286.4525

EPHEMERIS_TYPE = 0
CLASSIFICATION_TYPE = U
NORAD_CAT_ID   = 68185
ELEMENT_SET_NO = 999
REV_AT_EPOCH   = 299
BSTAR          = .14755091E-2
MEAN_MOTION_DOT = .30281E-2
MEAN_MOTION_DDOT = 0

